SENTINEL-6              
1 46984U 20086A   23301.48728812 -.00000027  00000+0  14653-3 0  9997
2 46984  66.0422 334.5914 0007918 268.2784  91.7324 12.80930698137153
